STARLINK-6133           
1 57134U 23090AK  24322.75038048  .00000970  00000+0  86882-4 0  9993
2 57134  43.0023 333.6752 0000996 271.5229  88.5499 15.02536400 78627
STARLINK-6127           
1 57135U 23090AL  24322.32709761 -.00000370  00000+0 -12346-4 0  9994
2 57135  43.0042 335.6570 0001010 257.8753 102.1977 15.02534125 78565
STARLINK-6112           
1 57136U 23090AM  24322.74705412  .00000720  00000+0  68396-4 0  9993
2 57136  43.0052 333.6489 0000973 269.6872  90.3859 15.02535110 78645
STARLINK-5347           
1 57137U 23090AN  24322.73372727  .00004924  00000+0  37944-3 0  9996
2 57137  43.0025 333.5496 0001711 282.1100  77.9550 15.02527697 78626
STARLINK-5336           
1 57138U 23090AP  24322.74594024  .00000949  00000+0  85299-4 0  9994
2 57138  43.0055 333.6389 0000996 273.6640  86.4089 15.02537853 78627
STARLINK-5355           
1 57139U 23090AQ  24322.39689970  .00001910  00000+0  15642-3 0  9994
2 57139  43.0038 335.3201 0001068 265.1847  94.8873 15.02529235 78570
STARLINK-5357           
1 57141U 23090AS  24322.45781826 -.00005762  00000+0 -41149-3 0  9999
2 57141  43.0042 334.9179 0001030 260.8203  99.2522 15.02566279 78584
STARLINK-5361           
1 57142U 23090AT  24322.71930003  .00001326  00000+0  11321-3 0  9991
2 57142  43.0050 333.4367 0001189 257.1006 102.9704 15.02538192 78624
STARLINK-5358           
1 57143U 23090AU  24322.38358563  .00000373  00000+0  42684-4 0  9998
2 57143  43.0042 335.2211 0001122 257.2672 102.8045 15.02531927 77626
STARLINK-5150           
1 57144U 23090AV  24322.32819568 -.00002885  00000+0 -19862-3 0  9993
2 57144  43.0048 335.6625 0001361 264.1731  95.8956 15.02524325 78564
STARLINK-5768           
1 57145U 23090AW  24322.30822570  .00000001  00000+0  15115-4 0  9993
2 57145  43.0039 335.5098 0001168 265.7478  94.3231 15.02533412 78565
STARLINK-5791           
1 57146U 23090AX  24322.11544882  .00001027  00000+0  91057-4 0  9998
2 57146  43.0033 336.6467 0000981 261.0759  98.9972 15.02535254 78530
STARLINK-5765           
1 57147U 23090AY  24322.76913012  .00000887  00000+0  80711-4 0  9993
2 57147  43.0050 332.9490 0001103 265.3933  94.6784 15.02537108 78829
STARLINK-5788           
1 57148U 23090AZ  24322.36360731 -.00000419  00000+0 -15953-4 0  9993
2 57148  43.0050 335.0681 0001404 270.0568  90.0114 15.02530503 78578
STARLINK-5778           
1 57149U 23090BA  24322.65000616 -.00000023  00000+0  13405-4 0  9999
2 57149  43.0044 307.7337 0001352 277.2535  82.8154 15.02529171 79103
STARLINK-5780           
1 57150U 23090BB  24322.31155458  .00000849  00000+0  77940-4 0  9998
2 57150  43.0047 335.5390 0001056 270.5432  89.5290 15.02534555 78756
STARLINK-5776           
1 57151U 23090BC  24322.37692455 -.00000734  00000+0 -39268-4 0  9994
2 57151  43.0027 335.1684 0001097 268.3189  91.7528 15.02537822 78766
STARLINK-6164           
1 57152U 23090BD  24322.38025264  .00001173  00000+0  10191-3 0  9993
2 57152  43.0054 335.1971 0001121 277.1991  82.8724 15.02536065 78760
STARLINK-5879           
1 57153U 23090BE  24322.40382187 -.00000169  00000+0  25562-5 0  9992
2 57153  43.0030 322.3527 0001022 275.8402  84.2324 15.02533186 78417
STARLINK-6106           
1 57154U 23090BF  24322.50432808  .00001128  00000+0  98531-4 0  9990
2 57154  43.0047 334.4043 0001082 273.4566  86.6153 15.02537003 78782
STARLINK-6108           
1 57155U 23090BG  24322.75580818  .00000326  00000+0  39182-4 0  9999
2 57155  43.0057 332.8524 0001964 275.2365  84.8253 15.02539535 78824
STARLINK-6137           
1 57156U 23090BH  24322.02790436 -.00001044  00000+0 -62217-4 0  9994
2 57156  43.0051 336.8487 0001729 260.6401  99.4245 15.02523930 78712
STARLINK-5525           
1 57218U 23094A   24322.69997279  .00000787  00000+0  73293-4 0  9991
2 57218  43.0018 102.5624 0001105 273.5781  86.4935 15.02533721 75366
STARLINK-5520           
1 57219U 23094B   24322.69664010 -.00001778  00000+0 -11657-3 0  9994
2 57219  43.0038 102.5374 0001679 271.2124  88.8526 15.02525689 75369
STARLINK-5880           
1 57220U 23094C   24323.07997417  .00000371  00000+0  42559-4 0  9991
2 57220  43.0031 100.2518 0001393 280.9590  79.1096 15.02537891 75606
STARLINK-5875           
1 57221U 23094D   24322.69443164 -.00001221  00000+0 -75300-4 0  9991
2 57221  43.0020 102.5220 0001702 279.3928  80.6721 15.02543056 75366
STARLINK-5870           
1 57222U 23094E   24323.08659007 -.00028691  00000+0 -21107-2 0  9995
2 57222  43.0039 100.3035 0001686 237.2955 122.7725 15.02656638 75667
STARLINK-5519           
1 57223U 23094F   24322.69110157 -.00000765  00000+0 -41598-4 0  9990
2 57223  43.0040 102.4970 0001218 272.0641  88.0062 15.02521072 75369
STARLINK-5983           
1 57224U 23094G   24322.68443463 -.00000078  00000+0  93287-5 0  9998
2 57224  43.0032 102.4468 0001391 267.0602  93.0082 15.02534475 75365
STARLINK-6294           
1 57225U 23094H   24323.09217901 -.00000123  00000+0  59395-5 0  9994
2 57225  43.0030 100.3401 0001364 276.9321  83.1366 15.02534665 75664
STARLINK-6350           
1 57226U 23094J   24322.87277070 -.00000287  00000+0 -61503-5 0  9999
2 57226  43.0034 101.2757 0001405 263.8126  96.2557 15.02532202 75399
STARLINK-5996           
1 57227U 23094K   24322.74425174  .00000847  00000+0  77746-4 0  9991
2 57227  43.0038 102.0330 0001468 258.8287 101.2390 15.02534208 75379
STARLINK-6230           
1 57228U 23094L   24322.73646376  .00001896  00000+0  15529-3 0  9995
2 57228  43.0018 101.9721 0000769 278.8115  81.2641 15.02554064 75373
STARLINK-6233           
1 57229U 23094M   24322.80961912  .00000106  00000+0  22906-4 0  9991
2 57229  43.0036 101.6636 0001405 268.7987  91.2695 15.02534098 75385
STARLINK-6250           
1 57230U 23094N   24322.79741434 -.00000072  00000+0  97291-5 0  9999
2 57230  43.0026 101.5696 0001128 273.3377  86.7336 15.02530864 75386
STARLINK-5840           
1 57231U 23094P   24322.77410342  .00000059  00000+0  19426-4 0  9996
2 57231  43.0034 101.3942 0001118 274.9647  85.1067 15.02532549 75380
STARLINK-5872           
1 57232U 23094Q   24322.70652989  .00001810  00000+0  14910-3 0  9993
2 57232  43.0032 101.7434 0001426 282.7273  77.3410 15.02522533 76033
STARLINK-5866           
1 57233U 23094R   24322.71428395  .00000360  00000+0  41689-4 0  9990
2 57233  43.0033 101.8059 0001371 272.9148  87.1538 15.02537377 75378
STARLINK-6368           
1 57234U 23094S   24322.70429347  .00000197  00000+0  29623-4 0  9990
2 57234  43.0030 101.7300 0001242 272.3218  87.7482 15.02534579 75378
STARLINK-6360           
1 57235U 23094T   24322.71650403  .00000643  00000+0  62693-4 0  9991
2 57235  43.0035 101.8229 0001184 268.5959  91.4747 15.02533271 75373
STARLINK-6315           
1 57236U 23094U   24322.71133356 -.00000251  00000+0 -35380-5 0  9996
2 57236  43.0033  89.6433 0001363 263.1214  96.9474 15.02534013 75693
STARLINK-6365           
1 57237U 23094V   24322.77743391 -.00000037  00000+0  12344-4 0  9994
2 57237  43.0029 101.4187 0001294 269.7087  90.3607 15.02530835 75381
STARLINK-6334           
1 57238U 23094W   24322.63708418 -.00000738  00000+0 -39583-4 0  9994
2 57238  43.0046  89.9415 0001560 264.2398  95.8266 15.02532641 75508
STARLINK-6330           
1 57239U 23094X   24322.70318707 -.00000625  00000+0 -31211-4 0  9996
2 57239  43.0029 101.7202 0001371 267.9539  92.1147 15.02533978 75371
STARLINK-6351           
1 57240U 23094Y   24322.62820138 -.00000055  00000+0  10975-4 0  9995
2 57240  43.0033  89.8743 0001350 263.7124  96.3564 15.02534202 75500
STARLINK-6349           
1 57241U 23094Z   24322.84096024  .00000023  00000+0  16794-4 0  9998
2 57241  43.0026  88.8908 0001217 245.7873 114.2842 15.02535020 75719
STARLINK-6306           
1 57242U 23094AA  24322.63819042 -.00000151  00000+0  38878-5 0  9990
2 57242  43.0034  89.9526 0001145 269.7539  90.3172 15.02535872 75504
STARLINK-6346           
1 57243U 23094AB  24322.64044349 -.00001652  00000+0 -10731-3 0  9996
2 57243  43.0039  89.9698 0001215 267.8327  92.2376 15.02506473 75504
STARLINK-5610           
1 57244U 23094AC  24322.63042278  .00000835  00000+0  76919-4 0  9996
2 57244  43.0047  89.8876 0001406 272.1203  87.9478 15.02535192 75509
STARLINK-5587           
1 57245U 23094AD  24322.70023367  .00001020  00000+0  90577-4 0  9996
2 57245  43.0033  89.5552 0001073 269.9409  90.1311 15.02532696 75514
STARLINK-5049           
1 57246U 23094AE  24322.73784863  .00001081  00000+0  95112-4 0  9992
2 57246  43.0039  88.9759 0001235 272.5052  87.5649 15.02535515 75525
STARLINK-5039           
1 57247U 23094AF  24322.62709566 -.00000088  00000+0  85805-5 0  9994
2 57247  43.0034  89.8662 0001061 269.2406  90.8315 15.02529519 75509
STARLINK-5514           
1 57248U 23094AG  24322.69024347 -.00000427  00000+0 -16561-4 0  9999
2 57248  43.0041  89.4805 0001215 266.0798  93.9905 15.02531800 75519
STARLINK-5517           
1 57249U 23094AH  24322.68801489 -.00000092  00000+0  82787-5 0  9990
2 57249  43.0028  89.4049 0001337 270.7693  89.2996 15.02534947 75519
STARLINK-5488           
1 57250U 23094AJ  24322.67803280  .00000978  00000+0  87491-4 0  9990
2 57250  43.0038  89.3883 0001343 271.9847  88.0842 15.02532905 75517
STARLINK-5513           
1 57251U 23094AK  24322.81764985  .00000117  00000+0  23748-4 0  9995
2 57251  43.0039  88.7169 0001085 264.6103  95.4616 15.02532629 75712
STARLINK-5511           
1 57252U 23094AL  24323.06912696 -.00000069  00000+0  99786-5 0  9991
2 57252  43.0046  87.1627 0001313 266.0970  93.9722 15.02536243 75756
STARLINK-5516           
1 57253U 23094AM  24322.41766990  .00000136  00000+0  25181-4 0  9995
2 57253  43.0052  90.8755 0001189 268.3893  91.6813 15.02530493 75473
STARLINK-5490           
1 57254U 23094AN  24322.66471486 -.00000006  00000+0  14644-4 0  9995
2 57254  43.0032  89.2881 0001196 271.8253  88.2452 15.02531096 75517
